CUTE-1 (CO-55)          
1 27844U 03031E   26046.50470245  .00000412  00000+0  19759-3 0  9997
2 27844  98.6776  56.5800 0009698 172.4966 187.6359 14.24247228174356
CUBESAT XI-IV (CO-57)   
1 27848U 03031J   26046.50288758  .00000357  00000+0  17587-3 0  9992
2 27848  98.6805  56.3887 0009228 190.5780 169.5206 14.23545316174066
CUBESAT XI-V            
1 28895U 05043F   26046.35590608  .00002433  00000+0  39353-3 0  9995
2 28895  98.2785 199.5653 0013466 229.2658 130.7380 14.72217064 83822
CUTE-1.7+APD II (CO-65) 
1 32785U 08021C   26046.48761137  .00008603  00000+0  56189-3 0  9999
2 32785  97.8162  25.5733 0011038  83.7093 276.5391 15.08034694966844
CANX-2                  
1 32790U 08021H   26046.49555993  .00006271  00000+0  45123-3 0  9992
2 32790  97.8507  24.0834 0012159  94.0510 266.2105 15.04533028966506
SEEDS II (CO-66)        
1 32791U 08021J   26046.46716879  .00025207  00000+0  92114-3 0  9994
2 32791  97.7492  38.9958 0004704  51.0255 309.1402 15.28075098968677
SWISSCUBE               
1 35932U 09051B   26046.51165839  .00001524  00000+0  31236-3 0  9992
2 35932  98.4121 312.2592 0005702 225.7540 134.3193 14.62195398871370
BEESAT-1                
1 35933U 09051C   26046.25407139  .00001276  00000+0  26743-3 0  9997
2 35933  98.4052 311.8820 0004032 242.2060 117.8732 14.61478287871374
ITUPSAT1                
1 35935U 09051E   26046.27596307  .00001171  00000+0  25289-3 0  9995
2 35935  98.4140 311.2211 0006171 256.2927 103.7586 14.60217688870943
TISAT 1                 
1 36799U 10035E   26046.34649600  .00028300  00000+0  10835-2 0  9994
2 36799  98.0638 342.6509 0002135  21.3961 338.7365 15.26518378849082
AEROCUBE 4.5A           
1 38767U 12048K   26046.47689978  .00094712  00000+0  11829-2 0  9997
2 38767  64.6382  97.1423 0045895 219.1513 140.6308 15.58042859353528
STRAND-1                
1 39090U 13009E   26046.42340483  .00000450  00000+0  16608-3 0  9992
2 39090  98.3863 229.6709 0007815 230.1599 129.8901 14.37074546679570
BRITE-AUSTRIA           
1 39091U 13009F   26046.45445199  .00000278  00000+0  10925-3 0  9990
2 39091  98.3931 228.9203 0009194 240.4383 119.5887 14.36482506679572
NEE-01 PEGASO           
1 39151U 13018B   26046.31526063  .00004495  00000+0  43869-3 0  9990
2 39151  98.1005 186.6402 0012525 201.5928 158.4763 14.92904924692514
POPACS 2                
1 39269U 13055E   26045.63257906  .00015419  00000+0  27482-3 0  9993
2 39269  80.9937 284.0703 0433670 226.4781 129.9638 14.86677848644971
POPACS 3                
1 39270U 13055F   26046.30954465  .00012017  00000+0  28883-3 0  9991
2 39270  81.0045   1.0813 0563645  80.5513 285.8906 14.53268916620837
ZACUBE-1 (TSHEPISOSAT)  
1 39417U 13066B   26046.45239414  .00007593  00000+0  60393-3 0  9997
2 39417  97.8184   8.1688 0040463 296.6629  63.0453 15.00064125662471
WNISAT-1                
1 39423U 13066H   26046.39247082  .00001516  00000+0  28585-3 0  9993
2 39423  97.7000 204.3337 0162441 255.4340 102.8796 14.57790731648981
TRITON-1                
1 39427U 13066M   26046.51215463  .00003422  00000+0  41877-3 0  9996
2 39427  97.8309 319.1137 0089429 271.0131  88.0837 14.81056265656071
GOMX-1                  
1 39430U 13066Q   26046.55212168  .00002409  00000+0  36795-3 0  9990
2 39430  97.6583 254.6363 0130802 107.8983 253.6536 14.69003915652054
CUBEBUG-2 (LO-74)       
1 39440U 13066AA  26046.37692336  .00006070  00000+0  57370-3 0  9990
2 39440  97.8778 355.0254 0060548  71.5203 289.2583 14.92670797658810
NEE-02 KRYSAOR          
1 39441U 13066AB  26046.36041157  .00003001  00000+0  33540-3 0  9993
2 39441  97.8798 346.5688 0068399 108.5993 252.2666 14.86016936658104
FUNCUBE-1 (AO-73)       
1 39444U 13066AE  26046.47380502  .00011481  00000+0  74990-3 0  9993
2 39444  97.8136  15.6488 0035767 257.1952 102.5277 15.07467940661315
UWE-3                   
1 39446U 13066AG  26046.39019359  .00007157  00000+0  62892-3 0  9998
2 39446  97.8553   1.8467 0050557   7.5068 352.6898 14.95883890659364
BRITE-CA1 (TORONTO)     
1 40020U 14033L   26046.33944170  .00001257  00000+0  19740-3 0  9994
2 40020  97.9534 177.6746 0077918 307.6031  51.8120 14.72400355624285
DUCHIFAT-1              
1 40021U 14033M   26046.08057111  .00042004  00000+0  82756-3 0  9999
2 40021  98.0687  89.8930 0006640 147.5111 212.6546 15.47086657636774
NANOSATC-BR1            
1 40024U 14033Q   26046.51575721  .00022109  00000+0  82967-3 0  9990
2 40024  98.0862  68.4290 0002190 228.0202 132.0848 15.27240084635386
QB50P1                  
1 40025U 14033R   26046.47019453  .00013188  00000+0  68912-3 0  9992
2 40025  98.0998  49.2632 0007051 286.8223  73.2235 15.16015995634575
QB50P2                  
1 40032U 14033Y   26046.44823300  .00011833  00000+0  66937-3 0  9991
2 40032  98.0701  35.9556 0006175 219.3574 140.7208 15.13222791634243
PERSEUS-M2              
1 40037U 14033AD  26046.47433674  .00002802  00000+0  26121-3 0  9997
2 40037  97.9830 354.6780 0011775 352.3308   7.7730 14.95047934632595
PERSEUS-M1              
1 40039U 14033AF  26046.38887233  .00003518  00000+0  32575-3 0  9998
2 40039  97.9531 348.6545 0011329 351.0451   9.0565 14.95133521632439
POLYITAN-1              
1 40042U 14033AJ  26046.48917834  .00023322  00000+0  83990-3 0  9996
2 40042  98.1055  61.6028 0006986 197.8049 162.2945 15.28565653634974
TIGRISAT                
1 40043U 14033AK  26046.41641844  .00003423  00000+0  40232-3 0  9997
2 40043  97.7628 199.3878 0050973 113.7651 246.8921 14.84598177627556
AEROCUBE 6A             
1 40045U 14033AM  26046.46708671  .00008936  00000+0  77826-3 0  9999
2 40045  97.7084 214.9219 0040290  64.0632 296.4733 14.96505311628403
AEROCUBE 6B             
1 40046U 14033AN  26046.45059087  .00009397  00000+0  79104-3 0  9992
2 40046  97.7062 214.4571 0038326  55.2084 305.2735 14.97868162628527
CANX-4                  
1 40055U 14034C   26046.21310506  .00001393  00000+0  18691-3 0  9995
2 40055  98.3311 276.9335 0013806  47.0579 313.1788 14.81001420626473
CANX-5                  
1 40056U 14034D   26046.21293106  .00001402  00000+0  18800-3 0  9995
2 40056  98.3314 276.9698 0013822  47.1906 313.0465 14.81018084617286
UKUBE-1                 
1 40074U 14037F   26046.50670236  .00012445  00000+0  74300-3 0  9999
2 40074  98.4206  37.2260 0001616 132.3976 227.7388 15.11286205630165
BRITE-PL2 (HEWELIUSZ)   
1 40119U 14049B   26046.30493231  .00003183  00000+0  30308-3 0  9997
2 40119  97.8974 157.5096 0014846 150.1077 210.0993 14.94056676623247
AEROCUBE 5C             
1 40965U 15058B   26046.03730462  .00002741  00000+0  25152-3 0  9997
2 40965  64.7669 282.3739 0132122 111.4698 250.0564 14.90655604347443
AEROCUBE 7              
1 40966U 15058C   26046.03653553  .00003683  00000+0  30658-3 0  9996
2 40966  64.7611 267.1136 0122197 110.7258 250.7003 14.94621001347698
FOX-1A (AO-85)          
1 40967U 15058D   26046.11152866  .00002709  00000+0  25323-3 0  9998
2 40967  64.7763 298.1306 0129989 104.9132 256.6416 14.90164568 95376
SINOD-D 1               
1 40968U 15058E   26046.02820372  .00003938  00000+0  32830-3 0  9999
2 40968  64.7747 281.1518 0118404 102.5023 258.9368 14.94778399 98392
SNAP-3 ALICE            
1 40970U 15058G   26046.46202990  .00061373  00000+0  14426-2 0  9997
2 40970  64.7580 158.1030 0037591  81.9767 278.5633 15.40887849 98020
LMRST-SAT               
1 40971U 15058H   26046.03636242  .00002769  00000+0  25957-3 0  9998
2 40971  64.7762 294.4757 0132221 106.8851 254.6807 14.89794435 95351
SNAP-3 EDDIE            
1 40972U 15058J   26046.47344182  .00073503  00000+0  16610-2 0  9995
2 40972  64.7504 149.5933 0039221  86.3439 274.2182 15.41930938100150
PROPCUBE 3              
1 40973U 15058K   26046.03060186  .00003280  00000+0  28276-3 0  9994
2 40973  64.7681 273.9296 0124987 108.7747 252.6975 14.93281668 96559
BISONSAT                
1 40974U 15058L   26046.42263625  .00019284  00000+0  10081-2 0  9996
2 40974  64.7589 206.4415 0080614 101.2918 259.7278 15.13127377 97179
SNAP-3 JIMI             
1 40975U 15058M   26046.51069256  .00008803  00000+0  62410-3 0  9990
2 40975  64.7631 244.3239 0107103 105.9012 255.3940 15.00756040 95955
PROPCUBE 1 (FLORA)      
1 40976U 15058N   26046.35038089  .00003510  00000+0  33675-3 0  9994
2 40976  64.7761 312.6286 0131326 108.9664 252.5732 14.88469309 98125
SINOD-D 3               
1 40977U 15058P   26046.30687321  .00005134  00000+0  44282-3 0  9999
2 40977  64.7731 296.1192 0119804 107.2033 254.2236 14.92964582 96555
HORYU-4                 
1 41340U 16012D   26045.82921881  .00064635  00000+0  79428-3 0  9994
2 41340  30.9896 227.4056 0000618 165.6128 194.4541 15.58945790551539
RAVAN                   
1 41849U 16067B   26046.49553213  .00045778  00000+0  99093-3 0  9999
2 41849  98.0091 282.9432 0008067  72.9198 287.2931 15.44292774508855
CELTEE 1                
1 41850U 16067C   26046.54031634  .00008293  00000+0  40820-3 0  9990
2 41850  98.0843 264.7980 0000731  36.9133 323.2149 15.18277367507412
OPTICUBE 04             
1 41851U 16067D   26046.49660773  .00003689  00000+0  23687-3 0  9993
2 41851  98.0819 252.3719 0016088 164.4900 195.6824 15.09044500506815
AEROCUBE 8D             
1 41852U 16067E   26046.51571399  .00010707  00000+0  46600-3 0  9991
2 41852  98.0862 267.4679 0003250 174.3916 185.7355 15.22439851507542
AEROCUBE 8C             
1 41853U 16067F   26046.03359122  .00007299  00000+0  31688-3 0  9999
2 41853  98.0728 264.3403 0006505 116.3227 243.8676 15.22642717507462
CORVUS BC2              
1 42846U 17042X   26046.46147974  .00005679  00000+0  39927-3 0  9997
2 42846  97.3910 212.7097 0013712 163.7051 196.4620 15.05390740468741
CORVUS BC1              
1 42847U 17042Y   26046.40488528  .00005241  00000+0  36662-3 0  9993
2 42847  97.3939 213.3839 0012845 141.4311 218.7836 15.05626631468762
